[{"OBJECT_NAME":"STARLINK-30532","OBJECT_ID":"2023-158V","EPOCH":"2026-03-09T06:07:37.137216","MEAN_MOTION":15.26732748,"ECCENTRICITY":7.652e-5,"INCLINATION":43.0022,"RA_OF_ASC_NODE":29.483,"ARG_OF_PERICENTER":276.0895,"MEAN_ANOMALY":83.9869,"EPHEMERIS_TYPE":0,"CLASSIFICATION_TYPE":"U","NORAD_CAT_ID":58070,"ELEMENT_SET_NO":999,"REV_AT_EPOCH":13350,"BSTAR":0.00015373229,"MEAN_MOTION_DOT":3.865e-5,"MEAN_MOTION_DDOT":0},{"OBJECT_NAME":"OBJECT B","OBJECT_ID":"2024-092B","EPOCH":"2026-03-09T22:35:16.756224","MEAN_MOTION":15.26654665,"ECCENTRICITY":0.00097063,"INCLINATION":97.6334,"RA_OF_ASC_NODE":195.5822,"ARG_OF_PERICENTER":166.5945,"MEAN_ANOMALY":193.5553,"EPHEMERIS_TYPE":0,"CLASSIFICATION_TYPE":"U","NORAD_CAT_ID":59774,"ELEMENT_SET_NO":999,"REV_AT_EPOCH":10038,"BSTAR":0.00052893964,"MEAN_MOTION_DOT":0.00013825,"MEAN_MOTION_DDOT":0}]
